{
  "norad_id": 68137,
  "name": "GUOWANG GROUP 20 OBJECT J",
  "history": [
    {
      "epoch": "2026-03-23T21:21:21.697344Z",
      "apogee_km": 886.1071228861665,
      "perigee_km": 885.8528787911373,
      "latitude_deg": 5.7093715099338465e-05,
      "longitude_deg": -129.19402125729786,
      "height_km": 886.5771642586362,
      "semi_major_axis_km": 7264.117000838652,
      "eccentricity": 1.75e-05,
      "inclination_deg": 50.0081,
      "raan_deg": 12.5219,
      "arg_perigee_deg": 124.6965,
      "mean_anomaly_deg": 235.3956,
      "mean_motion_rev_day": 14.02259904
    },
    {
      "epoch": "2026-03-29T05:59:36.933792Z",
      "apogee_km": 915.6277776174602,
      "perigee_km": 914.1946936391605,
      "latitude_deg": -3.443387151758032e-05,
      "longitude_deg": 74.3262515426226,
      "height_km": 916.045450888837,
      "semi_major_axis_km": 7293.04823562831,
      "eccentricity": 9.825e-05,
      "inclination_deg": 50.0061,
      "raan_deg": 350.8887,
      "arg_perigee_deg": 211.4979,
      "mean_anomaly_deg": 148.5862,
      "mean_motion_rev_day": 13.9392412
    }
  ]
}